{
    "links": {
        "self": "http://www.neowsapp.com/rest/v1/neo/3653695?api_key=iIulBulltgU6a56xZRHN4H3l9WmuAYTsLGpBGhQ2"
    },
    "id": "3653695",
    "neo_reference_id": "3653695",
    "name": "(2013 VP13)",
    "designation": "2013 VP13",
    "nasa_jpl_url": "http://ssd.jpl.nasa.gov/sbdb.cgi?sstr=3653695",
    "absolute_magnitude_h": 26.1,
    "estimated_diameter": {
        "kilometers": {
            "estimated_diameter_min": 0.0160160338,
            "estimated_diameter_max": 0.0358129403
        },
        "meters": {
            "estimated_diameter_min": 16.0160337979,
            "estimated_diameter_max": 35.8129403019
        },
        "miles": {
            "estimated_diameter_min": 0.0099518989,
            "estimated_diameter_max": 0.0222531225
        },
        "feet": {
            "estimated_diameter_min": 52.5460443254,
            "estimated_diameter_max": 117.4965270602
        }
    },
    "is_potentially_hazardous_asteroid": false,
    "close_approach_data": [
        {
            "close_approach_date": "2013-10-28",
            "close_approach_date_full": "2013-Oct-28 18:20",
            "epoch_date_close_approach": 1382984400000,
            "relative_velocity": {
                "kilometers_per_second": "11.1282293282",
                "kilometers_per_hour": "40061.6255813717",
                "miles_per_hour": "24892.7361841584"
            },
            "miss_distance": {
                "astronomical": "0.0147704576",
                "lunar": "5.7457080064",
                "kilometers": "2209628.995885312",
                "miles": "1372999.7911968256"
            },
            "orbiting_body": "Earth"
        }
    ],
    "orbital_data": {
        "orbit_id": "4",
        "orbit_determination_date": "2017-04-06 08:43:38",
        "first_observation_date": "2013-11-11",
        "last_observation_date": "2013-11-12",
        "data_arc_in_days": 1,
        "observations_used": 10,
        "orbit_uncertainty": "9",
        "minimum_orbit_intersection": ".00185875",
        "jupiter_tisserand_invariant": "3.721",
        "epoch_osculation": "2456608.5",
        "eccentricity": ".5251534084315536",
        "semi_major_axis": "1.936119863732889",
        "inclination": "5.192791962982529",
        "ascending_node_longitude": "32.05408743203215",
        "orbital_period": "984.003827789981",
        "perihelion_distance": ".9193599181615274",
        "perihelion_argument": "322.6723342873184",
        "aphelion_distance": "2.952879809304251",
        "perihelion_time": "2456563.729690932413",
        "mean_anomaly": "16.37931765014565",
        "mean_motion": ".3658522353602429",
        "equinox": "J2000",
        "orbit_class": {
            "orbit_class_type": "APO",
            "orbit_class_description": "Near-Earth asteroid orbits which cross the Earth’s orbit similar to that of 1862 Apollo",
            "orbit_class_range": "a (semi-major axis) > 1.0 AU; q (perihelion) < 1.017 AU"
        }
    },
    "is_sentry_object": false
}